ONEWEB-0230             
1 48769U 21045C   23268.80326420  .00000041  00000+0  74370-4 0  9991
2 48769  87.8940  97.4429 0001847  85.2887 274.8454 13.15552070113799
ONEWEB-0237             
1 48770U 21045D   23269.47723606 -.00000044  00000+0 -15125-3 0  9991
2 48770  87.8943  97.2261 0002254  82.4411 277.6975 13.15550731114737
ONEWEB-0235             
1 48771U 21045E   23269.44975781  .00000143  00000+0  34671-3 0  9997
2 48771  87.8935  97.2623 0002590  82.6645 277.4779 13.15550646114718
ONEWEB-0242             
1 48772U 21045F   23268.91102376  .00000129  00000+0  30974-3 0  9997
2 48772  87.8935  97.3608 0001950  87.2542 272.8812 13.15545981113564
ONEWEB-0241             
1 48773U 21045G   23268.89835069  .00000233  00000+0  58616-3 0  9996
2 48773  87.8945  97.3853 0001927  70.8336 289.3003 13.15546547113475
ONEWEB-0243             
1 48774U 21045H   23269.08214702 -.00000053  00000+0 -17428-3 0  9992
2 48774  87.8947  97.3055 0002283  87.5916 272.5476 13.15545777114650
ONEWEB-0222             
1 48775U 21045J   23269.45188176  .00000092  00000+0  20996-3 0  9994
2 48775  87.8933  97.2666 0001956  77.3467 282.7882 13.15549548114730
ONEWEB-0244             
1 48776U 21045K   23269.09273418  .00000365  00000+0  93561-3 0  9990
2 48776  87.8930  97.3224 0001907  90.1656 269.9693 13.15549321115252
